start=new Date('2022-10-03T00:00:00.000Z').valueOf();
sats=[{"BSTAR":"-0.01254100000000","ELEMENT_SET_NO":"999","EPHEMERIS_TYPE":"0","EPOCH":"2022-10-02T22:00:00.999936","FILE":"3589751","TLE_LINE1":"1 53037U 22076BD  22275.91667824 -.01061992  00000-0 -12541-1 0  9990","ARG_OF_PERICENTER":"91.1040","MEAN_MOTION":"15.63137366","INCLINATION":"53.2175","CLASSIFICATION_TYPE":"U","MEAN_MOTION_DOT":"-0.01061992","ECCENTRICITY":"0.00011570","GP_ID":"214051407","CENTER_NAME":"EARTH","MEAN_ANOMALY":"143.1325","REV_AT_EPOCH":"130","PERIAPSIS":"377.821","NORAD_CAT_ID":"53037","OBJECT_TYPE":"PAYLOAD","OBJECT_NAME":"STARLINK-4153","RA_OF_ASC_NODE":"307.3235","COUNTRY_CODE":"US","RCS_SIZE":"LARGE","APOAPSIS":"379.385","PERIOD":"92.122","TLE_LINE2":"2 53037  53.2175 307.3235 0001157  91.1040 143.1325 15.63137366  1309","OBJECT_ID":"2022-076BD","SITE":"AFETR","REF_FRAME":"TEME","TIME_SYSTEM":"UTC","LAUNCH_DATE":"2022-07-07","MEAN_MOTION_DDOT":"0.0000000000000","DECAY_DATE":null,"SEMIMAJOR_AXIS":"6756.738","MEAN_ELEMENT_THEORY":"SGP4"},{"RCS_SIZE":"LARGE","APOAPSIS":"379.363","OBJECT_NAME":"STARLINK-4156","RA_OF_ASC_NODE":"307.3282","COUNTRY_CODE":"US","NORAD_CAT_ID":"53038","OBJECT_TYPE":"PAYLOAD","LAUNCH_DATE":"2022-07-07","TIME_SYSTEM":"UTC","MEAN_ELEMENT_THEORY":"SGP4","SEMIMAJOR_AXIS":"6756.718","MEAN_MOTION_DDOT":"0.0000000000000","DECAY_DATE":null,"TLE_LINE2":"2 53038  53.2175 307.3282 0001155  85.7654 149.1734 15.63144274  1306","PERIOD":"92.122","SITE":"AFETR","REF_FRAME":"TEME","OBJECT_ID":"2022-076BE","MEAN_MOTION_DOT":"-0.01061946","CLASSIFICATION_TYPE":"U","INCLINATION":"53.2175","MEAN_MOTION":"15.63144274","ECCENTRICITY":"0.00011550","EPOCH":"2022-10-02T22:00:00.999936","ELEMENT_SET_NO":"999","EPHEMERIS_TYPE":"0","BSTAR":"-0.01253700000000","ARG_OF_PERICENTER":"85.7654","TLE_LINE1":"1 53038U 22076BE  22275.91667824 -.01061946  00000-0 -12537-1 0  9995","FILE":"3589751","CENTER_NAME":"EARTH","MEAN_ANOMALY":"149.1734","REV_AT_EPOCH":"130","PERIAPSIS":"377.803","GP_ID":"214052305"},{"ECCENTRICITY":"0.00023190","MEAN_MOTION_DOT":"0.00000589","CLASSIFICATION_TYPE":"U","MEAN_MOTION":"15.01269476","INCLINATION":"97.6567","ARG_OF_PERICENTER":"47.8025","TLE_LINE1":"1 53043U 22077A   22275.77838316  .00000589  00000-0  50418-4 0  9998","FILE":"3589751","EPOCH":"2022-10-02T18:40:52.305024","ELEMENT_SET_NO":"999","EPHEMERIS_TYPE":"0","BSTAR":"0.00005041800000","PERIAPSIS":"561.373","REV_AT_EPOCH":"1279","MEAN_ANOMALY":"312.3395","CENTER_NAME":"EARTH","GP_ID":"214051571","APOAPSIS":"564.592","RCS_SIZE":"LARGE","COUNTRY_CODE":"US","OBJECT_NAME":"STARLINK-4362","RA_OF_ASC_NODE":"95.5492","OBJECT_TYPE":"PAYLOAD","NORAD_CAT_ID":"53043","SEMIMAJOR_AXIS":"6941.118","MEAN_ELEMENT_THEORY":"SGP4","DECAY_DATE":null,"MEAN_MOTION_DDOT":"0.0000000000000","LAUNCH_DATE":"2022-07-11","TIME_SYSTEM":"UTC","REF_FRAME":"TEME","SITE":"AFWTR","OBJECT_ID":"2022-077A","TLE_LINE2":"2 53043  97.6567  95.5492 0002319  47.8025 312.3395 15.01269476 12798","PERIOD":"95.919"},{"OBJECT_TYPE":"PAYLOAD","NORAD_CAT_ID":"53044","APOAPSIS":"564.539","RCS_SIZE":"LARGE","COUNTRY_CODE":"US","RA_OF_ASC_NODE":"95.5466","OBJECT_NAME":"STARLINK-4349","REF_FRAME":"TEME","SITE":"AFWTR","OBJECT_ID":"2022-077B","TLE_LINE2":"2 53044  97.6560  95.5466 0002193  41.0715 319.0674 15.01258363 12792","PERIOD":"95.920","MEAN_ELEMENT_THEORY":"SGP4","SEMIMAJOR_AXIS":"6941.152","DECAY_DATE":null,"MEAN_MOTION_DDOT":"0.0000000000000","LAUNCH_DATE":"2022-07-11","TIME_SYSTEM":"UTC","ARG_OF_PERICENTER":"41.0715","TLE_LINE1":"1 53044U 22077B   22275.77469755 -.00000137  00000-0 -60372-5 0  9998","FILE":"3589751","ELEMENT_SET_NO":"999","EPOCH":"2022-10-02T18:35:33.868320","EPHEMERIS_TYPE":"0","BSTAR":"-0.00000603720000","ECCENTRICITY":"0.00021930","MEAN_MOTION_DOT":"-0.00000137","CLASSIFICATION_TYPE":"U","INCLINATION":"97.6560","MEAN_MOTION":"15.01258363","GP_ID":"214051720","PERIAPSIS":"561.495","REV_AT_EPOCH":"1279","MEAN_ANOMALY":"319.0674","CENTER_NAME":"EARTH"},{"BSTAR":"0.00014141000000","ELEMENT_SET_NO":"999","EPOCH":"2022-10-02T18:33:13.668768","EPHEMERIS_TYPE":"0","FILE":"3589751","ARG_OF_PERICENTER":"46.8818","TLE_LINE1":"1 53045U 22077C   22275.77307487  .00001758  00000-0  14141-3 0  9991","INCLINATION":"97.6560","MEAN_MOTION":"15.01264252","MEAN_MOTION_DOT":"0.00001758","CLASSIFICATION_TYPE":"U","ECCENTRICITY":"0.00021760","GP_ID":"214051824","CENTER_NAME":"EARTH","MEAN_ANOMALY":"313.2587","REV_AT_EPOCH":"1279","PERIAPSIS":"561.488","NORAD_CAT_ID":"53045","OBJECT_TYPE":"PAYLOAD","OBJECT_NAME":"STARLINK-4350","RA_OF_ASC_NODE":"95.5435","COUNTRY_CODE":"US","RCS_SIZE":"LARGE","APOAPSIS":"564.509","PERIOD":"95.919","TLE_LINE2":"2 53045  97.6560  95.5435 0002176  46.8818 313.2587 15.01264252 12790","OBJECT_ID":"2022-077C","SITE":"AFWTR","REF_FRAME":"TEME","TIME_SYSTEM":"UTC","LAUNCH_DATE":"2022-07-11","MEAN_MOTION_DDOT":"0.0000000000000","DECAY_DATE":null,"SEMIMAJOR_AXIS":"6941.134","MEAN_ELEMENT_THEORY":"SGP4"},{"REF_FRAME":"TEME","SITE":"AFWTR","OBJECT_ID":"2022-077D","TLE_LINE2":"2 53046  97.6568  95.5436 0002461  52.9348 307.2101 15.01252862 13377","PERIOD":"95.920","SEMIMAJOR_AXIS":"6941.169","MEAN_ELEMENT_THEORY":"SGP4","DECAY_DATE":null,"MEAN_MOTION_DDOT":"0.0000000000000","LAUNCH_DATE":"2022-07-11","TIME_SYSTEM":"UTC","OBJECT_TYPE":"PAYLOAD","NORAD_CAT_ID":"53046","APOAPSIS":"564.742","RCS_SIZE":"LARGE","COUNTRY_CODE":"US","OBJECT_NAME":"STARLINK-4331","RA_OF_ASC_NODE":"95.5436","GP_ID":"214021288","PERIAPSIS":"561.326","REV_AT_EPOCH":"1337","MEAN_ANOMALY":"307.2101","CENTER_NAME":"EARTH","TLE_LINE1":"1 53046U 22077D   22275.77284811  .00001677  00000-0  13512-3 0  9998","ARG_OF_PERICENTER":"52.9348","FILE":"3589529","ELEMENT_SET_NO":"999","EPOCH":"2022-10-02T18:32:54.076704","EPHEMERIS_TYPE":"0","BSTAR":"0.00013512000000","ECCENTRICITY":"0.00024610","CLASSIFICATION_TYPE":"U","MEAN_MOTION_DOT":"0.00001677","INCLINATION":"97.6568","MEAN_MOTION":"15.01252862"},{"GP_ID":"214051987","REV_AT_EPOCH":"1279","PERIAPSIS":"561.301","CENTER_NAME":"EARTH","MEAN_ANOMALY":"318.1906","FILE":"3589751","ARG_OF_PERICENTER":"41.9505","TLE_LINE1":"1 53047U 22077E   22275.77098292  .00000275  00000-0  25993-4 0  9995","BSTAR":"0.00002599300000","ELEMENT_SET_NO":"999","EPHEMERIS_TYPE":"0","EPOCH":"2022-10-02T18:30:12.924288","ECCENTRICITY":"0.00024360","INCLINATION":"97.6559","MEAN_MOTION":"15.01266605","MEAN_MOTION_DOT":"0.00000275","CLASSIFICATION_TYPE":"U","OBJECT_ID":"2022-077E","SITE":"AFWTR","REF_FRAME":"TEME","PERIOD":"95.919","TLE_LINE2":"2 53047  97.6559  95.5431 0002436  41.9505 318.1906 15.01266605 12797","MEAN_MOTION_DDOT":"0.0000000000000","DECAY_DATE":null,"SEMIMAJOR_AXIS":"6941.126","MEAN_ELEMENT_THEORY":"SGP4","TIME_SYSTEM":"UTC","LAUNCH_DATE":"2022-07-11","OBJECT_TYPE":"PAYLOAD","NORAD_CAT_ID":"53047","OBJECT_NAME":"STARLINK-4352","RA_OF_ASC_NODE":"95.5431","COUNTRY_CODE":"US","RCS_SIZE":"LARGE","APOAPSIS":"564.682"},{"MEAN_MOTION":"15.01262283","INCLINATION":"97.6576","CLASSIFICATION_TYPE":"U","MEAN_MOTION_DOT":"0.00000046","ECCENTRICITY":"0.00023590","BSTAR":"0.00000819190000","ELEMENT_SET_NO":"999","EPHEMERIS_TYPE":"0","EPOCH":"2022-10-02T18:30:34.392960","FILE":"3589533","ARG_OF_PERICENTER":"46.4535","TLE_LINE1":"1 53048U 22077F   22275.77123140  .00000046  00000-0  81919-5 0  9994","MEAN_ANOMALY":"313.6885","CENTER_NAME":"EARTH","PERIAPSIS":"561.367","REV_AT_EPOCH":"1336","GP_ID":"214021293","COUNTRY_CODE":"US","RA_OF_ASC_NODE":"95.5347","OBJECT_NAME":"STARLINK-4355","APOAPSIS":"564.642","RCS_SIZE":"LARGE","NORAD_CAT_ID":"53048","OBJECT_TYPE":"PAYLOAD","TIME_SYSTEM":"UTC","LAUNCH_DATE":"2022-07-11","DECAY_DATE":null,"MEAN_MOTION_DDOT":"0.0000000000000","SEMIMAJOR_AXIS":"6941.140","MEAN_ELEMENT_THEORY":"SGP4","PERIOD":"95.919","TLE_LINE2":"2 53048  97.6576  95.5347 0002359  46.4535 313.6885 15.01262283 13368","OBJECT_ID":"2022-077F","REF_FRAME":"TEME","SITE":"AFWTR"},{"OBJECT_NAME":"STARLINK-4345","RA_OF_ASC_NODE":"95.2676","COUNTRY_CODE":"US","RCS_SIZE":"LARGE","APOAPSIS":"564.341","NORAD_CAT_ID":"53049","OBJECT_TYPE":"PAYLOAD","TIME_SYSTEM":"UTC","LAUNCH_DATE":"2022-07-11","MEAN_MOTION_DDOT":"0.0000000000000","DECAY_DATE":null,"SEMIMAJOR_AXIS":"6941.121","MEAN_ELEMENT_THEORY":"SGP4","PERIOD":"95.919","TLE_LINE2":"2 53049  97.6581  95.2676 0001952  43.6995 316.4383 15.01268468 12740","OBJECT_ID":"2022-077G","SITE":"AFWTR","REF_FRAME":"TEME","INCLINATION":"97.6581","MEAN_MOTION":"15.01268468","CLASSIFICATION_TYPE":"U","MEAN_MOTION_DOT":"0.00001115","ECCENTRICITY":"0.00019520","BSTAR":"0.00009136900000","EPHEMERIS_TYPE":"0","ELEMENT_SET_NO":"999","EPOCH":"2022-10-02T11:58:38.879040","FILE":"3589474","ARG_OF_PERICENTER":"43.6995","TLE_LINE1":"1 53049U 22077G   22275.49906110  .00001115  00000-0  91369-4 0  9997","CENTER_NAME":"EARTH","MEAN_ANOMALY":"316.4383","REV_AT_EPOCH":"1274","PERIAPSIS":"561.631","GP_ID":"214019365"},{"GP_ID":"214052306","MEAN_ANOMALY":"307.1072","CENTER_NAME":"EARTH","PERIAPSIS":"561.458","REV_AT_EPOCH":"1278","ELEMENT_SET_NO":"999","EPHEMERIS_TYPE":"0","EPOCH":"2022-10-02T18:27:32.475168","BSTAR":"0.00004132000000","ARG_OF_PERICENTER":"53.0354","TLE_LINE1":"1 53050U 22077H   22275.76912587  .00000472  00000-0  41320-4 0  9991","FILE":"3589751","CLASSIFICATION_TYPE":"U","MEAN_MOTION_DOT":"0.00000472","INCLINATION":"97.6567","MEAN_MOTION":"15.01266568","ECCENTRICITY":"0.00022100","TLE_LINE2":"2 53050  97.6567  95.5348 0002210  53.0354 307.1072 15.01266568 12782","PERIOD":"95.919","REF_FRAME":"TEME","SITE":"AFWTR","OBJECT_ID":"2022-077H","LAUNCH_DATE":"2022-07-11","TIME_SYSTEM":"UTC","SEMIMAJOR_AXIS":"6941.127","MEAN_ELEMENT_THEORY":"SGP4","DECAY_DATE":null,"MEAN_MOTION_DDOT":"0.0000000000000","NORAD_CAT_ID":"53050","OBJECT_TYPE":"PAYLOAD","APOAPSIS":"564.526","RCS_SIZE":"LARGE","COUNTRY_CODE":"US","RA_OF_ASC_NODE":"95.5348","OBJECT_NAME":"STARLINK-4343"}];
